[
    {
        "Altitude(m)": 612513.9053468739,
        "Argument of Periapsis(deg)": 0.0,
        "Eccentricity": 0.0,
        "Inclination(deg)": 60.0,
        "Latitude(deg)": -28.135878283554643,
        "Longitude(deg)": 142.91307652854434,
        "Mean Anomaly(deg)": 212.7273,
        "RAAN(deg)": 45.0,
        "Satellite Name": "Test1 211",
        "Satellite Number": 211,
        "Semi-Major Axis(m)": 6980739.136638005,
        "Time(s)": 0
    },
    {
        "Altitude(m)": 612708.2731533968,
        "Argument of Periapsis(deg)": 0.00010418945913296404,
        "Eccentricity": 0.0,
        "Inclination(deg)": 60.0,
        "Latitude(deg)": -28.64761790351016,
        "Longitude(deg)": 143.2703057912788,
        "Mean Anomaly(deg)": 213.34740614546186,
        "RAAN(deg)": 44.99957995086026,
        "Satellite Name": "Test1 211",
        "Satellite Number": 211,
        "Semi-Major Axis(m)": 6980739.136638005,
        "Time(s)": 10
    }
]